{"type": "FeatureCollection", "features": [{"type": "Feature", "properties": {"norad_id": 28054, "name": "DMSP 5D-3 F16 (USA 172)", "group": "weather", "lat": -62.003062144753834, "lon": 159.9942576560523, "alt_km": 852.1402390049216, "timestamp": "2025-12-05T22:40:48.202199+00:00", "meta": {"OBJECT_NAME": "DMSP 5D-3 F16 (USA 172)", "OBJECT_ID": "2003-048A", "EPOCH": "2025-12-05T08:00:07.264224", "MEAN_MOTION": 14.1442012, "ECCENTRICITY": 0.00068061, "INCLINATION": 99.0051, "RA_OF_ASC_NODE": 356.732, "ARG_OF_PERICENTER": 343.5549, "MEAN_ANOMALY": 27.4387, "EPHEMERIS_TYPE": 0, "CLASSIFICATION_TYPE": "U", "NORAD_CAT_ID": 28054, "ELEMENT_SET_NO": 999, "REV_AT_EPOCH": 14208, "BSTAR": 0.00016568072, "MEAN_MOTION_DOT": 2.72e-06, "MEAN_MOTION_DDOT": 0}, "tle": {"line1": "1 28054U 03048A   25339.33341741  .00000272  00000+0  16568-3 0  9991", "line2": "2 28054  99.0051 356.7320 0006806 343.5549  27.4387 14.14420120142089"}}, "geometry": {"type": "Point", "coordinates": [159.9942576560523, -62.003062144753834]}}, {"type": "Feature", "properties": {"norad_id": 28912, "name": "METEOSAT-9 (MSG-2)", "group": "weather", "lat": 6.28868247118046, "lon": 100.4154124797461, "alt_km": 35798.51758758341, "timestamp": "2025-12-05T22:40:48.202248+00:00", "meta": {"OBJECT_NAME": "METEOSAT-9 (MSG-2)", "OBJECT_ID": "2005-049B", "EPOCH": "2025-12-04T20:47:32.232192", "MEAN_MOTION": 1.00272145, "ECCENTRICITY": 0.0004026, "INCLINATION": 8.9208, "RA_OF_ASC_NODE": 56.0475, "ARG_OF_PERICENTER": 186.7216, "MEAN_ANOMALY": 188.6483, "EPHEMERIS_TYPE": 0, "CLASSIFICATION_TYPE": "U", "NORAD_CAT_ID": 28912, "ELEMENT_SET_NO": 999, "REV_AT_EPOCH": 505, "BSTAR": 0, "MEAN_MOTION_DOT": 1.32e-06, "MEAN_MOTION_DDOT": 0}, "tle": {"line1": "1 28912U 05049B   25338.86634528  .00000132  00000+0  00000+0 0  9997", "line2": "2 28912   8.9208  56.0475 0004026 186.7216 188.6483  1.00272145  5051"}}, "geometry": {"type": "Point", "coordinates": [100.4154124797461, 6.28868247118046]}}, {"type": "Feature", "properties": {"norad_id": 29522, "name": "DMSP 5D-3 F17 (USA 191)", "group": "weather", "lat": 8.050069327426376, "lon": 166.7220824335827, "alt_km": 842.6122869575329, "timestamp": "2025-12-05T22:40:48.202266+00:00", "meta": {"OBJECT_NAME": "DMSP 5D-3 F17 (USA 191)", "OBJECT_ID": "2006-050A", "EPOCH": "2025-12-05T06:35:43.920096", "MEAN_MOTION": 14.14914617, "ECCENTRICITY": 0.00091969, "INCLINATION": 98.7393, "RA_OF_ASC_NODE": 344.8193, "ARG_OF_PERICENTER": 248.0865, "MEAN_ANOMALY": 111.9332, "EPHEMERIS_TYPE": 0, "CLASSIFICATION_TYPE": "U", "NORAD_CAT_ID": 29522, "ELEMENT_SET_NO": 999, "REV_AT_EPOCH": 98499, "BSTAR": 0.00019476293, "MEAN_MOTION_DOT": 3.33e-06, "MEAN_MOTION_DDOT": 0}, "tle": {"line1": "1 29522U 06050A   25339.27481389  .00000333  00000+0  19476-3 0  9993", "line2": "2 29522  98.7393 344.8193 0009196 248.0865 111.9332 14.14914617984998"}}, "geometry": {"type": "Point", "coordinates": [166.7220824335827, 8.050069327426376]}}, {"type": "Feature", "properties": {"norad_id": 32958, "name": "FENGYUN 3A", "group": "weather", "lat": 45.58126613821225, "lon": 108.57121835381669, "alt_km": 828.6852056565131, "timestamp": "2025-12-05T22:40:48.202280+00:00", "meta": {"OBJECT_NAME": "FENGYUN 3A", "OBJECT_ID": "2008-026A", "EPOCH": "2025-12-05T06:49:38.493984", "MEAN_MOTION": 14.19510918, "ECCENTRICITY": 0.00082586, "INCLINATION": 98.6684, "RA_OF_ASC_NODE": 278.9685, "ARG_OF_PERICENTER": 333.4287, "MEAN_ANOMALY": 26.6466, "EPHEMERIS_TYPE": 0, "CLASSIFICATION_TYPE": "U", "NORAD_CAT_ID": 32958, "ELEMENT_SET_NO": 999, "REV_AT_EPOCH": 90789, "BSTAR": 0.00013494463, "MEAN_MOTION_DOT": 2.41e-06, "MEAN_MOTION_DDOT": 0}, "tle": {"line1": "1 32958U 08026A   25339.28447331  .00000241  00000+0  13494-3 0  9997", "line2": "2 32958  98.6684 278.9685 0008258 333.4287  26.6466 14.19510918907890"}}, "geometry": {"type": "Point", "coordinates": [108.57121835381669, 45.58126613821225]}}, {"type": "Feature", "properties": {"norad_id": 35491, "name": "GOES 14", "group": "weather", "lat": -0.7929380548339475, "lon": -53.1019207987073, "alt_km": 35779.552651848324, "timestamp": "2025-12-05T22:40:48.202295+00:00", "meta": {"OBJECT_NAME": "GOES 14", "OBJECT_ID": "2009-033A", "EPOCH": "2025-12-05T04:34:38.633952", "MEAN_MOTION": 1.00272745, "ECCENTRICITY": 0.00042006, "INCLINATION": 1.1784, "RA_OF_ASC_NODE": 85.4964, "ARG_OF_PERICENTER": 152.1383, "MEAN_ANOMALY": 156.9502, "EPHEMERIS_TYPE": 0, "CLASSIFICATION_TYPE": "U", "NORAD_CAT_ID": 35491, "ELEMENT_SET_NO": 999, "REV_AT_EPOCH": 464, "BSTAR": 0, "MEAN_MOTION_DOT": -5.6e-07, "MEAN_MOTION_DDOT": 0}, "tle": {"line1": "1 35491U 09033A   25339.19072493 -.00000056  00000+0  00000+0 0  9994", "line2": "2 35491   1.1784  85.4964 0004200 152.1383 156.9502  1.00272745  4640"}}, "geometry": {"type": "Point", "coordinates": [-53.1019207987073, -0.7929380548339475]}}, {"type": "Feature", "properties": {"norad_id": 35951, "name": "DMSP 5D-3 F18 (USA 210)", "group": "weather", "lat": 42.05736150876079, "lon": -51.730989800482725, "alt_km": 832.6914496810969, "timestamp": "2025-12-05T22:40:48.202313+00:00", "meta": {"OBJECT_NAME": "DMSP 5D-3 F18 (USA 210)", "OBJECT_ID": "2009-057A", "EPOCH": "2025-12-05T05:30:20.757888", "MEAN_MOTION": 14.14762351, "ECCENTRICITY": 0.00121204, "INCLINATION": 98.8825, "RA_OF_ASC_NODE": 315.6681, "ARG_OF_PERICENTER": 82.2733, "MEAN_ANOMALY": 277.9816, "EPHEMERIS_TYPE": 0, "CLASSIFICATION_TYPE": "U", "NORAD_CAT_ID": 35951, "ELEMENT_SET_NO": 999, "REV_AT_EPOCH": 83216, "BSTAR": 0.000239442, "MEAN_MOTION_DOT": 4.17e-06, "MEAN_MOTION_DDOT": 0}, "tle": {"line1": "1 35951U 09057A   25339.22940692  .00000417  00000+0  23944-3 0  9996", "line2": "2 35951  98.8825 315.6681 0012120  82.2733 277.9816 14.14762351832160"}}, "geometry": {"type": "Point", "coordinates": [-51.730989800482725, 42.05736150876079]}}, {"type": "Feature", "properties": {"norad_id": 36411, "name": "EWS-G2 (GOES 15)", "group": "weather", "lat": 0.4207812430274808, "lon": 116.60552910993687, "alt_km": 35806.64049882698, "timestamp": "2025-12-05T22:40:48.202336+00:00", "meta": {"OBJECT_NAME": "EWS-G2 (GOES 15)", "OBJECT_ID": "2010-008A", "EPOCH": "2025-12-04T20:52:01.801056", "MEAN_MOTION": 1.00268004, "ECCENTRICITY": 0.0006023, "INCLINATION": 0.7932, "RA_OF_ASC_NODE": 86.0482, "ARG_OF_PERICENTER": 170.8261, "MEAN_ANOMALY": 191.5518, "EPHEMERIS_TYPE": 0, "CLASSIFICATION_TYPE": "U", "NORAD_CAT_ID": 36411, "ELEMENT_SET_NO": 999, "REV_AT_EPOCH": 5769, "BSTAR": 0, "MEAN_MOTION_DOT": 5.1e-07, "MEAN_MOTION_DDOT": 0}, "tle": {"line1": "1 36411U 10008A   25338.86946529  .00000051  00000+0  00000+0 0  9998", "line2": "2 36411   0.7932  86.0482 0006023 170.8261 191.5518  1.00268004 57690"}}, "geometry": {"type": "Point", "coordinates": [116.60552910993687, 0.4207812430274808]}}, {"type": "Feature", "properties": {"norad_id": 36744, "name": "COMS 1", "group": "weather", "lat": 4.160622755899527, "lon": -176.61447203349994, "alt_km": 35784.65689312882, "timestamp": "2025-12-05T22:40:48.202349+00:00", "meta": {"OBJECT_NAME": "COMS 1", "OBJECT_ID": "2010-032A", "EPOCH": "2025-12-05T05:44:42.026784", "MEAN_MOTION": 1.00271786, "ECCENTRICITY": 0.00011661, "INCLINATION": 4.322, "RA_OF_ASC_NODE": 78.0821, "ARG_OF_PERICENTER": 183.7843, "MEAN_ANOMALY": 26.7761, "EPHEMERIS_TYPE": 0, "CLASSIFICATION_TYPE": "U", "NORAD_CAT_ID": 36744, "ELEMENT_SET_NO": 999, "REV_AT_EPOCH": 4914, "BSTAR": 0, "MEAN_MOTION_DOT": -3.35e-06, "MEAN_MOTION_DDOT": 0}, "tle": {"line1": "1 36744U 10032A   25339.23937531 -.00000335  00000+0  00000+0 0  9995", "line2": "2 36744   4.3220  78.0821 0001166 183.7843  26.7761  1.00271786 49140"}}, "geometry": {"type": "Point", "coordinates": [-176.61447203349994, 4.160622755899527]}}, {"type": "Feature", "properties": {"norad_id": 37214, "name": "FENGYUN 3B", "group": "weather", "lat": 6.561740492233638, "lon": 18.831037576550543, "alt_km": 829.146027345867, "timestamp": "2025-12-05T22:40:48.202361+00:00", "meta": {"OBJECT_NAME": "FENGYUN 3B", "OBJECT_ID": "2010-059A", "EPOCH": "2025-12-05T07:41:25.181376", "MEAN_MOTION": 14.14786554, "ECCENTRICITY": 0.00223582, "INCLINATION": 98.9919, "RA_OF_ASC_NODE": 19.2457, "ARG_OF_PERICENTER": 18.7151, "MEAN_ANOMALY": 48.7677, "EPHEMERIS_TYPE": 0, "CLASSIFICATION_TYPE": "U", "NORAD_CAT_ID": 37214, "ELEMENT_SET_NO": 999, "REV_AT_EPOCH": 78001, "BSTAR": 0.00013076553, "MEAN_MOTION_DOT": 2.07e-06, "MEAN_MOTION_DDOT": 0}, "tle": {"line1": "1 37214U 10059A   25339.32043034  .00000207  00000+0  13077-3 0  9992", "line2": "2 37214  98.9919  19.2457 0022358  18.7151  48.7677 14.14786554780015"}}, "geometry": {"type": "Point", "coordinates": [18.831037576550543, 6.561740492233638]}}, {"type": "Feature", "properties": {"norad_id": 37849, "name": "SUOMI NPP", "group": "weather", "lat": 80.92411020667555, "lon": 172.6020758352647, "alt_km": 818.4537614433248, "timestamp": "2025-12-05T22:40:48.202372+00:00", "meta": {"OBJECT_NAME": "SUOMI NPP", "OBJECT_ID": "2011-061A", "EPOCH": "2025-12-05T07:01:18.630336", "MEAN_MOTION": 14.19510854, "ECCENTRICITY": 0.00019751, "INCLINATION": 98.7762, "RA_OF_ASC_NODE": 276.7017, "ARG_OF_PERICENTER": 133.5006, "MEAN_ANOMALY": 226.6335, "EPHEMERIS_TYPE": 0, "CLASSIFICATION_TYPE": "U", "NORAD_CAT_ID": 37849, "ELEMENT_SET_NO": 999, "REV_AT_EPOCH": 73093, "BSTAR": 0.00011311915, "MEAN_MOTION_DOT": 1.94e-06, "MEAN_MOTION_DDOT": 0}, "tle": {"line1": "1 37849U 11061A   25339.29257674  .00000194  00000+0  11312-3 0  9998", "line2": "2 37849  98.7762 276.7017 0001975 133.5006 226.6335 14.19510854730939"}}, "geometry": {"type": "Point", "coordinates": [172.6020758352647, 80.92411020667555]}}]}